OBJECT_NAME,OBJECT_ID,EPOCH,MEAN_MOTION,ECCENTRICITY,INCLINATION,RA_OF_ASC_NODE,ARG_OF_PERICENTER,MEAN_ANOMALY,EPHEMERIS_TYPE,CLASSIFICATION_TYPE,NORAD_CAT_ID,ELEMENT_SET_NO,REV_AT_EPOCH,BSTAR,MEAN_MOTION_DOT,MEAN_MOTION_DDOT
SAUDISAT 1C (SO-50),2002-058C,2026-07-08T01:24:59.474016,14.83089154,.0074727,64.5519,64.4071,258.5866,100.6840,0,U,27607,999,26755,.85741E-4,.576E-5,0
SAUDISAT 2,2004-025F,2026-07-07T23:29:55.922208,14.56695518,.0023697,98.5515,189.4989,231.1200,128.7883,0,U,28371,999,16877,.49532E-4,.172E-5,0
SAUDISAT 3,2007-012B,2026-07-07T20:43:07.830912,14.71437510,.0015107,98.1464,139.2785,156.8633,203.3257,0,U,31118,999,3078,.38392E-4,.187E-5,0
PISAT,2016-059B,2026-07-07T22:03:25.337664,14.69020500,.0030059,97.8185,188.4815,137.1043,223.2515,0,U,41784,999,52278,.12728E-3,.704E-5,0
FLYING LAPTOP,2017-042G,2026-07-08T04:21:42.654816,15.01281935,.0019926,97.4784,343.9199,54.6204,305.6879,0,U,42831,999,48960,.19415E-3,.2449E-4,0
SALSAT,2020-068K,2026-07-07T22:39:07.910784,15.30102262,.000847,97.8859,193.2762,220.3352,139.7260,0,U,46495,999,31853,.15694E-3,.449E-4,0
